{"type": "FeatureCollection", "features": [ {"type": "Feature", "properties": {"norad_id": 33650, "name": "FENGYUN 1C DEB", "group": "fengyun-1c-debris", "lat": 66.20550810581398, "lon": -9.332628403735724, "alt_km": 826.7710252884162, "timestamp": "2025-12-10T11:33:53.671886+00:00", "meta": {"OBJECT_NAME": "FENGYUN 1C DEB", "OBJECT_ID": "1999-025DEK", "EPOCH": "2025-12-08T05:27:12.984768", "MEAN_MOTION": 13.89181804, "ECCENTRICITY": 0.01501243, "INCLINATION": 98.9884, "RA_OF_ASC_NODE": 147.4557, "ARG_OF_PERICENTER": 91.2923, "MEAN_ANOMALY": 270.5438, "EPHEMERIS_TYPE": 0, "CLASSIFICATION_TYPE": "U", "NORAD_CAT_ID": 33650, "ELEMENT_SET_NO": 999, "REV_AT_EPOCH": 68746, "BSTAR": 0.0012694502, "MEAN_MOTION_DOT": 1.648e-05, "MEAN_MOTION_DDOT": 0}, "tle": {"line1": "1 33650U 99025DEK 25342.22723362  .00001648  00000+0  12695-2 0  9998", "line2": "2 33650  98.9884 147.4557 0150124  91.2923 270.5438 13.89181804687460"}}, "geometry": {"type": "Point", "coordinates": [-9.332628403735724, 66.20550810581398]}}, {"type": "Feature", "properties": {"norad_id": 33651, "name": "FENGYUN 1C DEB", "group": "fengyun-1c-debris", "lat": 50.203828739772355, "lon": -139.34981052231956, "alt_km": 787.510357069089, "timestamp": "2025-12-10T11:33:53.671896+00:00", "meta": {"OBJECT_NAME": "FENGYUN 1C DEB", "OBJECT_ID": "1999-025DEL", "EPOCH": "2025-12-09T09:36:40.963968", "MEAN_MOTION": 14.20352443, "ECCENTRICITY": 0.01178528, "INCLINATION": 98.6567, "RA_OF_ASC_NODE": 29.0543, "ARG_OF_PERICENTER": 63.5748, "MEAN_ANOMALY": 297.7466, "EPHEMERIS_TYPE": 0, "CLASSIFICATION_TYPE": "U", "NORAD_CAT_ID": 33651, "ELEMENT_SET_NO": 999, "REV_AT_EPOCH": 64224, "BSTAR": 0.00025261989, "MEAN_MOTION_DOT": 5.38e-06, "MEAN_MOTION_DDOT": 0}, "tle": {"line1": "1 33651U 99025DEL 25343.40047412  .00000538  00000+0  25262-3 0  9997", "line2": "2 33651  98.6567  29.0543 0117852  63.5748 297.7466 14.20352443642248"}}, "geometry": {"type": "Point", "coordinates": [-139.34981052231956, 50.203828739772355]}}, {"type": "Feature", "properties": {"norad_id": 33655, "name": "FENGYUN 1C DEB", "group": "fengyun-1c-debris", "lat": -79.89395541512633, "lon": 109.84146525146899, "alt_km": 582.336612560528, "timestamp": "2025-12-10T11:33:53.671905+00:00", "meta": {"OBJECT_NAME": "FENGYUN 1C DEB", "OBJECT_ID": "1999-025DEQ", "EPOCH": "2025-12-08T15:02:28.005792", "MEAN_MOTION": 14.97473855, "ECCENTRICITY": 0.00476597, "INCLINATION": 98.8026, "RA_OF_ASC_NODE": 47.3627, "ARG_OF_PERICENTER": 12.392, "MEAN_ANOMALY": 347.8459, "EPHEMERIS_TYPE": 0, "CLASSIFICATION_TYPE": "U", "NORAD_CAT_ID": 33655, "ELEMENT_SET_NO": 999, "REV_AT_EPOCH": 96496, "BSTAR": 0.0023169231, "MEAN_MOTION_DOT": 0.00027643, "MEAN_MOTION_DDOT": 0}, "tle": {"line1": "1 33655U 99025DEQ 25342.62671303  .00027643  00000+0  23169-2 0  9995", "line2": "2 33655  98.8026  47.3627 0047659  12.3920 347.8459 14.97473855964961"}}, "geometry": {"type": "Point", "coordinates": [109.84146525146899, -79.89395541512633]}}, {"type": "Feature", "properties": {"norad_id": 33656, "name": "FENGYUN 1C DEB", "group": "fengyun-1c-debris", "lat": -76.26700580377172, "lon": 15.749126212861935, "alt_km": 852.7425109810883, "timestamp": "2025-12-10T11:33:53.671915+00:00", "meta": {"OBJECT_NAME": "FENGYUN 1C DEB", "OBJECT_ID": "1999-025DER", "EPOCH": "2025-12-08T19:25:37.486560", "MEAN_MOTION": 14.2271982, "ECCENTRICITY": 0.00906449, "INCLINATION": 98.5783, "RA_OF_ASC_NODE": 335.9755, "ARG_OF_PERICENTER": 42.7826, "MEAN_ANOMALY": 318.0362, "EPHEMERIS_TYPE": 0, "CLASSIFICATION_TYPE": "U", "NORAD_CAT_ID": 33656, "ELEMENT_SET_NO": 999, "REV_AT_EPOCH": 62653, "BSTAR": 0.00077976866, "MEAN_MOTION_DOT": 1.78e-05, "MEAN_MOTION_DDOT": 0}, "tle": {"line1": "1 33656U 99025DER 25342.80946165  .00001780  00000+0  77977-3 0  9998", "line2": "2 33656  98.5783 335.9755 0090644  42.7826 318.0362 14.22719820626535"}}, "geometry": {"type": "Point", "coordinates": [15.749126212861935, -76.26700580377172]}}, {"type": "Feature", "properties": {"norad_id": 33658, "name": "FENGYUN 1C DEB", "group": "fengyun-1c-debris", "lat": 59.88738730635861, "lon": -25.38098148842731, "alt_km": 938.7005082816286, "timestamp": "2025-12-10T11:33:53.671925+00:00", "meta": {"OBJECT_NAME": "FENGYUN 1C DEB", "OBJECT_ID": "1999-025DET", "EPOCH": "2025-12-10T03:55:02.595936", "MEAN_MOTION": 13.62337712, "ECCENTRICITY": 0.0283612, "INCLINATION": 99.5634, "RA_OF_ASC_NODE": 137.408, "ARG_OF_PERICENTER": 187.7936, "MEAN_ANOMALY": 171.875, "EPHEMERIS_TYPE": 0, "CLASSIFICATION_TYPE": "U", "NORAD_CAT_ID": 33658, "ELEMENT_SET_NO": 999, "REV_AT_EPOCH": 58104, "BSTAR": 0.0051435, "MEAN_MOTION_DOT": 5.177e-05, "MEAN_MOTION_DDOT": 0}, "tle": {"line1": "1 33658U 99025DET 25344.16322449  .00005177  00000+0  51435-2 0  9998", "line2": "2 33658  99.5634 137.4080 0283612 187.7936 171.8750 13.62337712581041"}}, "geometry": {"type": "Point", "coordinates": [-25.38098148842731, 59.88738730635861]}}, {"type": "Feature", "properties": {"norad_id": 33660, "name": "FENGYUN 1C DEB", "group": "fengyun-1c-debris", "lat": -13.791918738953733, "lon": 73.67575626557637, "alt_km": 884.5435170267629, "timestamp": "2025-12-10T11:33:53.671935+00:00", "meta": {"OBJECT_NAME": "FENGYUN 1C DEB", "OBJECT_ID": "1999-025DEV", "EPOCH": "2025-12-08T17:21:22.345056", "MEAN_MOTION": 13.91763329, "ECCENTRICITY": 0.01098533, "INCLINATION": 98.6563, "RA_OF_ASC_NODE": 254.177, "ARG_OF_PERICENTER": 257.3117, "MEAN_ANOMALY": 130.7477, "EPHEMERIS_TYPE": 0, "CLASSIFICATION_TYPE": "U", "NORAD_CAT_ID": 33660, "ELEMENT_SET_NO": 999, "REV_AT_EPOCH": 91008, "BSTAR": 0.00090111184, "MEAN_MOTION_DOT": 1.162e-05, "MEAN_MOTION_DDOT": 0}, "tle": {"line1": "1 33660U 99025DEV 25342.72317529  .00001162  00000+0  90111-3 0  9999", "line2": "2 33660  98.6563 254.1770 0109853 257.3117 130.7477 13.91763329910086"}}, "geometry": {"type": "Point", "coordinates": [73.67575626557637, -13.791918738953733]}}, {"type": "Feature", "properties": {"norad_id": 33663, "name": "FENGYUN 1C DEB", "group": "fengyun-1c-debris", "lat": 64.68267787100811, "lon": -43.80272525247213, "alt_km": 640.6320149557614, "timestamp": "2025-12-10T11:33:53.671945+00:00", "meta": {"OBJECT_NAME": "FENGYUN 1C DEB", "OBJECT_ID": "1999-025DEY", "EPOCH": "2025-12-09T10:37:30.702144", "MEAN_MOTION": 14.61681168, "ECCENTRICITY": 0.00823538, "INCLINATION": 98.8852, "RA_OF_ASC_NODE": 334.3914, "ARG_OF_PERICENTER": 23.2121, "MEAN_ANOMALY": 337.2764, "EPHEMERIS_TYPE": 0, "CLASSIFICATION_TYPE": "U", "NORAD_CAT_ID": 33663, "ELEMENT_SET_NO": 999, "REV_AT_EPOCH": 64154, "BSTAR": 0.0086324652, "MEAN_MOTION_DOT": 0.00045332, "MEAN_MOTION_DDOT": 0}, "tle": {"line1": "1 33663U 99025DEY 25343.44271646  .00045332  00000+0  86325-2 0  9999", "line2": "2 33663  98.8852 334.3914 0082353  23.2121 337.2764 14.61681168641546"}}, "geometry": {"type": "Point", "coordinates": [-43.80272525247213, 64.68267787100811]}}, {"type": "Feature", "properties": {"norad_id": 33664, "name": "FENGYUN 1C DEB", "group": "fengyun-1c-debris", "lat": 59.296360866271534, "lon": 118.37406062180379, "alt_km": 758.6244415086994, "timestamp": "2025-12-10T11:33:53.671955+00:00", "meta": {"OBJECT_NAME": "FENGYUN 1C DEB", "OBJECT_ID": "1999-025DEZ", "EPOCH": "2025-12-02T03:10:30.773568", "MEAN_MOTION": 14.03976749, "ECCENTRICITY": 0.01640632, "INCLINATION": 98.7018, "RA_OF_ASC_NODE": 125.3204, "ARG_OF_PERICENTER": 69.7897, "MEAN_ANOMALY": 292.0828, "EPHEMERIS_TYPE": 0, "CLASSIFICATION_TYPE": "U", "NORAD_CAT_ID": 33664, "ELEMENT_SET_NO": 999, "REV_AT_EPOCH": 90590, "BSTAR": 0.00053085125, "MEAN_MOTION_DOT": 9.05e-06, "MEAN_MOTION_DDOT": 0}, "tle": {"line1": "1 33664U 99025DEZ 25336.13230062  .00000905  00000+0  53085-3 0  9990", "line2": "2 33664  98.7018 125.3204 0164063  69.7897 292.0828 14.03976749905904"}}, "geometry": {"type": "Point", "coordinates": [118.37406062180379, 59.296360866271534]}}, {"type": "Feature", "properties": {"norad_id": 33665, "name": "FENGYUN 1C DEB", "group": "fengyun-1c-debris", "lat": -0.763493757796073, "lon": -78.11381405759997, "alt_km": 824.5373776385959, "timestamp": "2025-12-10T11:33:53.671965+00:00", "meta": {"OBJECT_NAME": "FENGYUN 1C DEB", "OBJECT_ID": "1999-025DFA", "EPOCH": "2025-12-09T14:13:34.413024", "MEAN_MOTION": 14.03614886, "ECCENTRICITY": 0.0455908, "INCLINATION": 99.0228, "RA_OF_ASC_NODE": 101.1219, "ARG_OF_PERICENTER": 100.9485, "MEAN_ANOMALY": 264.3307, "EPHEMERIS_TYPE": 0, "CLASSIFICATION_TYPE": "U", "NORAD_CAT_ID": 33665, "ELEMENT_SET_NO": 999, "REV_AT_EPOCH": 92547, "BSTAR": 0.001048, "MEAN_MOTION_DOT": 4.143e-05, "MEAN_MOTION_DDOT": 0}, "tle": {"line1": "1 33665U 99025DFA 25343.59275941  .00004143  00000+0  10480-2 0  9993", "line2": "2 33665  99.0228 101.1219 0455908 100.9485 264.3307 14.03614886925471"}}, "geometry": {"type": "Point", "coordinates": [-78.11381405759997, -0.763493757796073]}}, {"type": "Feature", "properties": {"norad_id": 33673, "name": "FENGYUN 1C DEB", "group": "fengyun-1c-debris", "lat": -14.42116165954219, "lon": -151.16684537152483, "alt_km": 850.1050243377958, "timestamp": "2025-12-10T11:33:53.671975+00:00", "meta": {"OBJECT_NAME": "FENGYUN 1C DEB", "OBJECT_ID": "1999-025DFJ", "EPOCH": "2025-12-07T14:32:49.071264", "MEAN_MOTION": 13.95529173, "ECCENTRICITY": 0.01074586, "INCLINATION": 99.345, "RA_OF_ASC_NODE": 28.3453, "ARG_OF_PERICENTER": 238.21, "MEAN_ANOMALY": 277.2882, "EPHEMERIS_TYPE": 0, "CLASSIFICATION_TYPE": "U", "NORAD_CAT_ID": 33673, "ELEMENT_SET_NO": 999, "REV_AT_EPOCH": 89830, "BSTAR": 0.00098940102, "MEAN_MOTION_DOT": 1.364e-05, "MEAN_MOTION_DDOT": 0}, "tle": {"line1": "1 33673U 99025DFJ 25341.60612351  .00001364  00000+0  98940-3 0  9992", "line2": "2 33673  99.3450  28.3453 0107458 238.2100 277.2882 13.95529173898309"}}, "geometry": {"type": "Point", "coordinates": [-151.16684537152483, -14.42116165954219]}}]}